{
    "links": {
        "self": "http://www.neowsapp.com/rest/v1/neo/3653535?api_key=iIulBulltgU6a56xZRHN4H3l9WmuAYTsLGpBGhQ2"
    },
    "id": "3653535",
    "neo_reference_id": "3653535",
    "name": "(2013 VL5)",
    "designation": "2013 VL5",
    "nasa_jpl_url": "http://ssd.jpl.nasa.gov/sbdb.cgi?sstr=3653535",
    "absolute_magnitude_h": 26.3,
    "estimated_diameter": {
        "kilometers": {
            "estimated_diameter_min": 0.0146067964,
            "estimated_diameter_max": 0.0326617897
        },
        "meters": {
            "estimated_diameter_min": 14.6067964271,
            "estimated_diameter_max": 32.6617897446
        },
        "miles": {
            "estimated_diameter_min": 0.0090762397,
            "estimated_diameter_max": 0.020295089
        },
        "feet": {
            "estimated_diameter_min": 47.92256199,
            "estimated_diameter_max": 107.1581062656
        }
    },
    "is_potentially_hazardous_asteroid": false,
    "close_approach_data": [
        {
            "close_approach_date": "1997-12-05",
            "close_approach_date_full": "1997-Dec-05 20:55",
            "epoch_date_close_approach": 881355300000,
            "relative_velocity": {
                "kilometers_per_second": "22.3466107398",
                "kilometers_per_hour": "80447.7986632066",
                "miles_per_hour": "49987.133563813"
            },
            "miss_distance": {
                "astronomical": "0.4238409282",
                "lunar": "164.8741210698",
                "kilometers": "63405700.077542934",
                "miles": "39398475.0966191292"
            },
            "orbiting_body": "Earth"
        },
        {
            "close_approach_date": "2001-11-30",
            "close_approach_date_full": "2001-Nov-30 08:18",
            "epoch_date_close_approach": 1007108280000,
            "relative_velocity": {
                "kilometers_per_second": "19.3909104516",
                "kilometers_per_hour": "69807.2776256624",
                "miles_per_hour": "43375.5275891234"
            },
            "miss_distance": {
                "astronomical": "0.3275481192",
                "lunar": "127.4162183688",
                "kilometers": "49000500.954826104",
                "miles": "30447499.4240200752"
            },
            "orbiting_body": "Earth"
        },
        {
            "close_approach_date": "2013-11-01",
            "close_approach_date_full": "2013-Nov-01 00:49",
            "epoch_date_close_approach": 1383266940000,
            "relative_velocity": {
                "kilometers_per_second": "9.8072912352",
                "kilometers_per_hour": "35306.248446686",
                "miles_per_hour": "21937.9297639977"
            },
            "miss_distance": {
                "astronomical": "0.0175482853",
                "lunar": "6.8262829817",
                "kilometers": "2625186.103032311",
                "miles": "1631215.0039794518"
            },
            "orbiting_body": "Earth"
        }
    ],
    "orbital_data": {
        "orbit_id": "8",
        "orbit_determination_date": "2017-04-06 08:43:48",
        "first_observation_date": "2013-11-04",
        "last_observation_date": "2013-11-08",
        "data_arc_in_days": 4,
        "observations_used": 30,
        "orbit_uncertainty": "8",
        "minimum_orbit_intersection": ".00308622",
        "jupiter_tisserand_invariant": "3.155",
        "epoch_osculation": "2456601.5",
        "eccentricity": ".6154863953772273",
        "semi_major_axis": "2.529959990137398",
        "inclination": "1.656111665274989",
        "ascending_node_longitude": "207.3472410377324",
        "orbital_period": "1469.836089331716",
        "perihelion_distance": ".9728040353591253",
        "perihelion_argument": "167.096946235259",
        "aphelion_distance": "4.08711594491567",
        "perihelion_time": "2456579.184875500263",
        "mean_anomaly": "5.465537877463499",
        "mean_motion": ".2449252692956257",
        "equinox": "J2000",
        "orbit_class": {
            "orbit_class_type": "APO",
            "orbit_class_description": "Near-Earth asteroid orbits which cross the Earth’s orbit similar to that of 1862 Apollo",
            "orbit_class_range": "a (semi-major axis) > 1.0 AU; q (perihelion) < 1.017 AU"
        }
    },
    "is_sentry_object": false
}